50499,ONEWEB-0427,2021,109.2,148.0,+,87.91,Active,1,LEO,Kazakhstan,UK,Commercial,Communications,Soyuz,1 50499U 21132AG  25084.01016537  .00000035  00000+0  55906-4 0  9994,2 50499  87.9071  64.7339 0001759  91.6527 268.4807 13.18687036162417,13.18687036,0.0001759,LEO
50500,ONEWEB-0429,2021,109.2,148.0,+,87.91,Active,1,LEO,Kazakhstan,UK,Commercial,Communications,Soyuz,1 50500U 21132AH  25084.45277650  .00000072  00000+0  14977-3 0  9993,2 50500  87.9077  64.6688 0001986  80.8973 279.2384 13.18685208162441,13.18685208,0.0001986,LEO
50501,ONEWEB-0430,2021,109.2,148.0,+,87.91,Active,1,LEO,Kazakhstan,UK,Commercial,Communications,Soyuz,1 50501U 21132AJ  25084.36584145  .00000181  00000+0  42676-3 0  9992,2 50501  87.9074  64.6813 0001755  76.3565 283.7762 13.18686736162470,13.18686736,0.0001755,LEO
50502,ONEWEB-0432,2021,109.2,148.0,+,87.91,Active,1,LEO,Kazakhstan,UK,Commercial,Communications,Soyuz,1 50502U 21132AK  25084.47331815  .00000118  00000+0  26574-3 0  9998,2 50502  87.9072  64.6494 0001031 102.0743 258.0504 13.18688567162446,13.18688567,0.0001031,LEO
50503,ONEWEB-0440,2021,109.2,148.0,+,87.91,Active,1,LEO,Kazakhstan,UK,Commercial,Communications,Soyuz,1 50503U 21132AL  25084.46068369  .00000074  00000+0  15544-3 0  9995,2 50503  87.9076  64.6492 0002369  85.1821 274.9582 13.18687172162435,13.18687172,0.0002369,LEO
50504,ONEWEB-0450,2021,109.2,148.0,+,87.91,Active,1,LEO,Kazakhstan,UK,Commercial,Communications,Soyuz,1 50504U 21132AM  25084.45450392  .00000079  00000+0  16825-3 0  9994,2 50504  87.9076  64.6790 0002036  75.4070 284.7287 13.18686283162462,13.18686283,0.0002036,LEO
51622,ONEWEB-0410,2022,109.29,148.0,+,87.9,Active,1,LEO,French Guiana,UK,Commercial,Communications,Soyuz,1 51622U 22012A   25084.51044993  .00000066  00000+0  13714-3 0  9997,2 51622  87.9000  95.2125 0002312 129.2419 230.8917 13.17650483154617,13.17650483,0.0002312,LEO
51623,ONEWEB-0411,2022,109.89,148.0,+,87.88,Active,1,LEO,French Guiana,UK,Commercial,Communications,Soyuz,1 51623U 22012B   25084.87084938  .00000700  00000+0  19679-2 0  9990,2 51623  87.8828 125.6406 0001511  82.9164 277.2135 13.10373034151854,13.10373034,0.0001511,LEO
